[{"OBJECT_NAME":"OBJECT H","OBJECT_ID":"2025-055H","EPOCH":"2026-03-09T23:29:50.051328","MEAN_MOTION":15.30330066,"ECCENTRICITY":0.00075967,"INCLINATION":97.636,"RA_OF_ASC_NODE":211.9572,"ARG_OF_PERICENTER":140.4354,"MEAN_ANOMALY":219.7441,"EPHEMERIS_TYPE":0,"CLASSIFICATION_TYPE":"U","NORAD_CAT_ID":63298,"ELEMENT_SET_NO":999,"REV_AT_EPOCH":5423,"BSTAR":0.0015582864,"MEAN_MOTION_DOT":0.00045901,"MEAN_MOTION_DDOT":0},{"OBJECT_NAME":"STARLINK-35585","OBJECT_ID":"2025-240AA","EPOCH":"2026-03-09T10:11:37.865184","MEAN_MOTION":15.30217853,"ECCENTRICITY":0.00016445,"INCLINATION":53.1589,"RA_OF_ASC_NODE":64.3324,"ARG_OF_PERICENTER":80.3548,"MEAN_ANOMALY":279.7639,"EPHEMERIS_TYPE":0,"CLASSIFICATION_TYPE":"U","NORAD_CAT_ID":66170,"ELEMENT_SET_NO":999,"REV_AT_EPOCH":2194,"BSTAR":0.00060128196,"MEAN_MOTION_DOT":0.00017501,"MEAN_MOTION_DDOT":0}]
